[{"OBJECT_NAME":"STARLINK-31940","OBJECT_ID":"2024-098R","EPOCH":"2026-03-09T13:19:36.161760","MEAN_MOTION":15.27575351,"ECCENTRICITY":5.207e-5,"INCLINATION":43.0013,"RA_OF_ASC_NODE":271.1418,"ARG_OF_PERICENTER":241.0178,"MEAN_ANOMALY":119.0622,"EPHEMERIS_TYPE":0,"CLASSIFICATION_TYPE":"U","NORAD_CAT_ID":59873,"ELEMENT_SET_NO":999,"REV_AT_EPOCH":10191,"BSTAR":1.7422101e-5,"MEAN_MOTION_DOT":2.18e-6,"MEAN_MOTION_DDOT":0},{"OBJECT_NAME":"OBJECT J","OBJECT_ID":"2026-023J","EPOCH":"2026-03-09T17:10:35.014656","MEAN_MOTION":15.23262782,"ECCENTRICITY":0.00239883,"INCLINATION":96.6344,"RA_OF_ASC_NODE":144.1739,"ARG_OF_PERICENTER":114.5009,"MEAN_ANOMALY":245.8735,"EPHEMERIS_TYPE":0,"CLASSIFICATION_TYPE":"U","NORAD_CAT_ID":67682,"ELEMENT_SET_NO":999,"REV_AT_EPOCH":484,"BSTAR":0.00057379131,"MEAN_MOTION_DOT":0.00013658,"MEAN_MOTION_DDOT":0}]
